OBJECT C                
1 57582U 23117C   25293.28459446  .00030079  00000+0  10616-2 0  9998
2 57582  97.4344   7.8178 0008421  20.8132 339.3449 15.29152258121764
